TOMORROW-S2             
1 60485U 24149T   26068.75188364  .00008133  00000+0  27683-3 0  9990
2 60485  97.3857 150.0385 0001648 234.3331 125.7757 15.30674935 86869
STARLINK-32411          
1 61547U 24184R   26068.15018723 -.00000352  00000+0  21992-6 0  9990
2 61547  53.1624  16.5001 0000996  82.5308 277.5806 15.30192458 78423
