[{"OBJECT_NAME":"TOMORROW-S2","OBJECT_ID":"2024-149T","EPOCH":"2026-03-09T18:02:42.746496","MEAN_MOTION":15.30674935,"ECCENTRICITY":0.0001648,"INCLINATION":97.3857,"RA_OF_ASC_NODE":150.0385,"ARG_OF_PERICENTER":234.3331,"MEAN_ANOMALY":125.7757,"EPHEMERIS_TYPE":0,"CLASSIFICATION_TYPE":"U","NORAD_CAT_ID":60485,"ELEMENT_SET_NO":999,"REV_AT_EPOCH":8686,"BSTAR":0.00027683033,"MEAN_MOTION_DOT":8.133e-5,"MEAN_MOTION_DDOT":0},{"OBJECT_NAME":"STARLINK-32411","OBJECT_ID":"2024-184R","EPOCH":"2026-03-09T03:36:16.176672","MEAN_MOTION":15.30192458,"ECCENTRICITY":9.965e-5,"INCLINATION":53.1624,"RA_OF_ASC_NODE":16.5001,"ARG_OF_PERICENTER":82.5308,"MEAN_ANOMALY":277.5806,"EPHEMERIS_TYPE":0,"CLASSIFICATION_TYPE":"U","NORAD_CAT_ID":61547,"ELEMENT_SET_NO":999,"REV_AT_EPOCH":7842,"BSTAR":2.19918e-7,"MEAN_MOTION_DOT":-3.52e-6,"MEAN_MOTION_DDOT":0}]
